{
  "norad_id": 64126,
  "name": "STARLINK-11717 [DTC]",
  "history": [
    {
      "epoch": "2026-03-28T17:48:36.326304Z",
      "apogee_km": 357.16451633268844,
      "perigee_km": 355.5138962145311,
      "latitude_deg": 1.29577048368291e-05,
      "longitude_deg": 125.86878392077928,
      "height_km": 356.3789540351317,
      "semi_major_axis_km": 6734.47620627361,
      "eccentricity": 0.00012255,
      "inclination_deg": 42.9995,
      "raan_deg": 219.1783,
      "arg_perigee_deg": 251.0798,
      "mean_anomaly_deg": 108.9937,
      "mean_motion_rev_day": 15.70894531
    },
    {
      "epoch": "2026-03-29T01:26:25.182816Z",
      "apogee_km": 357.8745206840322,
      "perigee_km": 354.780707640286,
      "latitude_deg": -3.8763527151901827e-07,
      "longitude_deg": 9.18653808324775,
      "height_km": 355.05566760406003,
      "semi_major_axis_km": 6734.464614162159,
      "eccentricity": 0.0002297,
      "inclination_deg": 43.0001,
      "raan_deg": 217.263,
      "arg_perigee_deg": 47.6879,
      "mean_anomaly_deg": 312.4183,
      "mean_motion_rev_day": 15.70898587
    },
    {
      "epoch": "2026-03-30T04:54:28.997856Z",
      "apogee_km": 357.12795830159575,
      "perigee_km": 355.29217529118614,
      "latitude_deg": -3.123083226874462e-05,
      "longitude_deg": -50.856649531482596,
      "height_km": 356.50583509820115,
      "semi_major_axis_km": 6734.34706679639,
      "eccentricity": 0.0001363,
      "inclination_deg": 43.0002,
      "raan_deg": 210.3638,
      "arg_perigee_deg": 235.2177,
      "mean_anomaly_deg": 124.8562,
      "mean_motion_rev_day": 15.70939717
    },
    {
      "epoch": "2026-03-30T06:26:02.694336Z",
      "apogee_km": 357.71329153007173,
      "perigee_km": 355.1273562088518,
      "latitude_deg": 3.361325651212945e-05,
      "longitude_deg": -74.19315400600638,
      "height_km": 355.33716303969214,
      "semi_major_axis_km": 6734.5573238694615,
      "eccentricity": 0.00019199,
      "inclination_deg": 43.0002,
      "raan_deg": 209.9803,
      "arg_perigee_deg": 311.443,
      "mean_anomaly_deg": 48.6273,
      "mean_motion_rev_day": 15.70866149
    },
    {
      "epoch": "2026-03-30T09:29:09.991392Z",
      "apogee_km": 358.0365003062625,
      "perigee_km": 354.83219125993946,
      "latitude_deg": -5.0883703977763284e-05,
      "longitude_deg": -120.86679065529965,
      "height_km": 355.4779288054458,
      "semi_major_axis_km": 6734.571345783101,
      "eccentricity": 0.0002379,
      "inclination_deg": 42.9999,
      "raan_deg": 209.2125,
      "arg_perigee_deg": 297.0868,
      "mean_anomaly_deg": 62.9756,
      "mean_motion_rev_day": 15.70861243
    },
    {
      "epoch": "2026-03-31T14:28:47.923680Z",
      "apogee_km": 357.71033873322085,
      "perigee_km": 355.1161899713925,
      "latitude_deg": 7.235319458007765e-06,
      "longitude_deg": 155.75208573259894,
      "height_km": 357.0630016433072,
      "semi_major_axis_km": 6734.550264352306,
      "eccentricity": 0.0001926,
      "inclination_deg": 42.9998,
      "raan_deg": 201.9301,
      "arg_perigee_deg": 132.7419,
      "mean_anomaly_deg": 227.3611,
      "mean_motion_rev_day": 15.70868619
    },
    {
      "epoch": "2026-04-01T13:22:11.943552Z",
      "apogee_km": 357.70179521582577,
      "perigee_km": 355.10226315056025,
      "latitude_deg": -2.4623879736315694e-05,
      "longitude_deg": 165.71451108092984,
      "height_km": 357.0778924182776,
      "semi_major_axis_km": 6734.539029183193,
      "eccentricity": 0.000193,
      "inclination_deg": 43.0008,
      "raan_deg": 196.1827,
      "arg_perigee_deg": 134.2088,
      "mean_anomaly_deg": 225.8938,
      "mean_motion_rev_day": 15.7087255
    },
    {
      "epoch": "2026-04-02T15:18:41.882400Z",
      "apogee_km": 357.8127933198821,
      "perigee_km": 354.8582455361584,
      "latitude_deg": -2.8588049559765506e-06,
      "longitude_deg": 129.0105043856718,
      "height_km": 355.592554151208,
      "semi_major_axis_km": 6734.47251942802,
      "eccentricity": 0.00021936,
      "inclination_deg": 43.0029,
      "raan_deg": 189.6688,
      "arg_perigee_deg": 290.4576,
      "mean_anomaly_deg": 69.6056,
      "mean_motion_rev_day": 15.70895821
    },
    {
      "epoch": "2026-04-02T22:56:30.277536Z",
      "apogee_km": 356.97384349823733,
      "perigee_km": 355.4967262812688,
      "latitude_deg": 3.7507416735660776e-05,
      "longitude_deg": 12.327943779051685,
      "height_km": 355.32590020673786,
      "semi_major_axis_km": 6734.372284889752,
      "eccentricity": 0.00010967,
      "inclination_deg": 42.9996,
      "raan_deg": 187.7512,
      "arg_perigee_deg": 22.9442,
      "mean_anomaly_deg": 337.1475,
      "mean_motion_rev_day": 15.70930893
    },
    {
      "epoch": "2026-04-03T12:40:31.886976Z",
      "apogee_km": 357.7700378346917,
      "perigee_km": 355.2988175010232,
      "latitude_deg": 3.903943828829243e-05,
      "longitude_deg": 162.30871308233668,
      "height_km": 356.8069889946956,
      "semi_major_axis_km": 6734.671427667857,
      "eccentricity": 0.00018347,
      "inclination_deg": 43.0012,
      "raan_deg": 184.3027,
      "arg_perigee_deg": 246.139,
      "mean_anomaly_deg": 113.9286,
      "mean_motion_rev_day": 15.70826227
    },
    {
      "epoch": "2026-04-04T06:59:17.129472Z",
      "apogee_km": 357.6018744007506,
      "perigee_km": 355.0562462299513,
      "latitude_deg": 8.849199089321891e-06,
      "longitude_deg": -117.7303002398909,
      "height_km": 356.21028043481425,
      "semi_major_axis_km": 6734.466060315351,
      "eccentricity": 0.000189,
      "inclination_deg": 43.0021,
      "raan_deg": 179.7043,
      "arg_perigee_deg": 265.1248,
      "mean_anomaly_deg": 94.9404,
      "mean_motion_rev_day": 15.70898081
    },
    {
      "epoch": "2026-04-05T13:30:28.075680Z",
      "apogee_km": 357.41922962015815,
      "perigee_km": 355.36115810971387,
      "latitude_deg": 3.463668429097024e-05,
      "longitude_deg": 135.55451653729213,
      "height_km": 356.48697934908375,
      "semi_major_axis_km": 6734.527193864936,
      "eccentricity": 0.0001528,
      "inclination_deg": 42.9998,
      "raan_deg": 172.0381,
      "arg_perigee_deg": 251.6258,
      "mean_anomaly_deg": 108.4444,
      "mean_motion_rev_day": 15.70876691
    },
    {
      "epoch": "2026-04-05T13:30:28.076544Z",
      "apogee_km": 357.41929696542957,
      "perigee_km": 355.36109076444154,
      "latitude_deg": 3.5370363019338875e-05,
      "longitude_deg": 135.5545137098162,
      "height_km": 356.48700057608,
      "semi_major_axis_km": 6734.527193864936,
      "eccentricity": 0.00015281,
      "inclination_deg": 42.9998,
      "raan_deg": 172.0381,
      "arg_perigee_deg": 251.6258,
      "mean_anomaly_deg": 108.4444,
      "mean_motion_rev_day": 15.70876691
    },
    {
      "epoch": "2026-04-06T06:17:36.906144Z",
      "apogee_km": 358.1618313282288,
      "perigee_km": 354.41695150049054,
      "latitude_deg": -3.324176331931513e-06,
      "longitude_deg": -121.1374867213133,
      "height_km": 356.02929363269357,
      "semi_major_axis_km": 6734.426391414359,
      "eccentricity": 0.00027804,
      "inclination_deg": 42.9999,
      "raan_deg": 167.8223,
      "arg_perigee_deg": 271.0267,
      "mean_anomaly_deg": 89.0282,
      "mean_motion_rev_day": 15.70911961
    },
    {
      "epoch": "2026-04-07T11:17:15.120096Z",
      "apogee_km": 357.5787023300636,
      "perigee_km": 355.072404746139,
      "latitude_deg": 1.0805086367593396e-05,
      "longitude_deg": 155.47976118952405,
      "height_km": 357.02459258739077,
      "semi_major_axis_km": 6734.462553538101,
      "eccentricity": 0.00018608,
      "inclination_deg": 42.9995,
      "raan_deg": 160.5395,
      "arg_perigee_deg": 137.8769,
      "mean_anomaly_deg": 222.2242,
      "mean_motion_rev_day": 15.70899308
    },
    {
      "epoch": "2026-04-08T13:13:45.677568Z",
      "apogee_km": 357.8775870906429,
      "perigee_km": 354.64319071270074,
      "latitude_deg": 1.601352097616436e-05,
      "longitude_deg": 118.7739479333695,
      "height_km": 355.95975741920205,
      "semi_major_axis_km": 6734.397388901672,
      "eccentricity": 0.00024014,
      "inclination_deg": 43.0032,
      "raan_deg": 154.0264,
      "arg_perigee_deg": 272.63,
      "mean_anomaly_deg": 87.4293,
      "mean_motion_rev_day": 15.70922109
    },
    {
      "epoch": "2026-04-09T04:29:22.098048Z",
      "apogee_km": 357.4723741351054,
      "perigee_km": 355.27813535226505,
      "latitude_deg": -1.2379315185686562e-05,
      "longitude_deg": -114.58834699830153,
      "height_km": 356.09197109541134,
      "semi_major_axis_km": 6734.512254743685,
      "eccentricity": 0.00016291,
      "inclination_deg": 43.0015,
      "raan_deg": 150.1926,
      "arg_perigee_deg": 272.9306,
      "mean_anomaly_deg": 87.1375,
      "mean_motion_rev_day": 15.70881918
    },
    {
      "epoch": "2026-04-10T09:29:00.129696Z",
      "apogee_km": 358.000710449267,
      "perigee_km": 354.9095326654715,
      "latitude_deg": 4.617163957657682e-05,
      "longitude_deg": 162.03160985604794,
      "height_km": 356.336297011557,
      "semi_major_axis_km": 6734.592121557369,
      "eccentricity": 0.0002295,
      "inclination_deg": 43.0038,
      "raan_deg": 142.9117,
      "arg_perigee_deg": 266.0068,
      "mean_anomaly_deg": 94.0538,
      "mean_motion_rev_day": 15.70853974
    },
    {
      "epoch": "2026-04-11T19:03:19.475424Z",
      "apogee_km": 357.1740881040605,
      "perigee_km": 355.6992164742096,
      "latitude_deg": 2.3426344437531938e-05,
      "longitude_deg": 8.639321017421562,
      "height_km": 355.8425312332063,
      "semi_major_axis_km": 6734.573652289135,
      "eccentricity": 0.0001095,
      "inclination_deg": 43.0018,
      "raan_deg": 134.4788,
      "arg_perigee_deg": 299.7953,
      "mean_anomaly_deg": 60.2806,
      "mean_motion_rev_day": 15.70860436
    }
  ]
}